#cP2016  5  1  0  0  0.00000000       5 TESTO TESTR FIT TEST
## 1895      0.00000000   900.00000000 57509 0.0000000000000
+   11   E08E09E11E12E14E18E19E22E24E26E30  0  0  0  0  0  0
+          0  0  0  0  0  0  0  0  0  0  0  0  0  0  0  0  0
+          0  0  0  0  0  0  0  0  0  0  0  0  0  0  0  0  0
+          0  0  0  0  0  0  0  0  0  0  0  0  0  0  0  0  0
+          0  0  0  0  0  0  0  0  0  0  0  0  0  0  0  0  0
++         5  5  5  5  5  5  5  5  5  5  5  0  0  0  0  0  0
++         0  0  0  0  0  0  0  0  0  0  0  0  0  0  0  0  0
++         0  0  0  0  0  0  0  0  0  0  0  0  0  0  0  0  0
++         0  0  0  0  0  0  0  0  0  0  0  0  0  0  0  0  0
++         0  0  0  0  0  0  0  0  0  0  0  0  0  0  0  0  0
%c E  cc GAL ccc cccc cccc cccc cccc ccccc ccccc ccccc ccccc
%c cc cc ccc ccc cccc cccc cccc cccc ccccc ccccc ccccc ccccc
%f  1.2500000  1.025000000  0.00000000000  0.000000000000000
%f  0.0000000  0.000000000  0.00000000000  0.000000000000000
%i    0    0    0    0      0      0      0      0         0
%i    0    0    0    0      0      0      0      0         0
/* Unique tests in this file: Galileo sat codes, Galileo sat
/* system code. This is the fifth SP3 mgex test file, and   
/* judges its unique test items from ...mgex1 through       
/* ...mgex4.                                                
*  2016  5  1  0  0  0.00000000
PE08 -28346.330001   2201.529679  -8225.278236   1810.590490  0  0  0   0       
PE09  23725.783663 -14383.809556 -10301.399560   1770.452720  0  0  0   0       
PE11  14064.245342  -9561.608903  24232.710665    124.230103  0  0  0   0       
PE12  23624.859881   7195.527009  16342.533038  -1786.133860  0  0  0   0       
PE14 -21187.530175 -11376.712119   3406.114586 999999.999999  0  0  0   0       
PE18  22492.652658  19693.375519 -11476.477985   2520.654340  0  0  0   0       
PE19  14679.078934  12296.637845  22580.239556     -3.807804  0  0  0   0       
PE22 -20907.628062 -20948.947900    536.692868   2053.777040  0  0  0   0       
PE24  15061.701786 -20679.860883 -14918.444476   1023.677180  0  0  0   0       
PE26   5271.739533  22748.569892 -18181.980810   6832.494770  0  0  0   0       
PE30 -16390.112621    266.403447  24634.307283   5470.262430  0  0  0   0       
*  2016  5  1  0 15  0.00000000
PE08 -27519.175652   1976.391011 -10712.913698   1810.949360  0  0  0   0       
PE09  24491.102681 -14677.152146  -7794.243365   1770.809240  0  0  0   0       
PE11  15681.273960  -8118.364451  23763.719735    124.239946  0  0  0   0       
PE12  24686.354185   8077.746046  14224.074560  -1786.274890  0  0  0   0       
PE14 -19919.842691 -11805.260494   6222.302266 999999.999999  0  0  0   0       
PE18  21937.119055  19332.406826 -13473.362795   2521.010720  0  0  0   0       
PE19  12696.379642  12914.077679  23420.635440     -3.808407  0  0  0   0       
PE22 -20823.024978 -20788.115989   3242.545662   2053.936010  0  0  0   0       
PE24  14639.234792 -19293.201561 -17045.213152   1024.033940  0  0  0   0       
PE26   4028.118767  21559.892065 -19869.731808   6832.855510  0  0  0   0       
PE30 -15904.292582  -1923.599661  24878.609263   5470.621680  0  0  0   0       
*  2016  5  1  0 30  0.00000000
PE08 -26506.269638   1614.206368 -13067.251818   1811.308180  0  0  0   0       
PE09  25020.466246 -14935.928260  -5190.104730   1771.165750  0  0  0   0       
PE11  17350.536989  -6825.036261  22999.378073    124.249757  0  0  0   0       
PE12  25650.033074   8761.185631  11928.942839  -1786.416070  0  0  0   0       
PE14 -18325.846648 -12196.184372   8892.710441 999999.999999  0  0  0   0       
PE18  21214.820527  18951.491351 -15339.968743   2521.366940  0  0  0   0       
PE19  10701.774114  13687.808584  23969.929781     -3.809043  0  0  0   0       
PE22 -20538.095887 -20482.207871   5908.070987   2054.094940  0  0  0   0       
PE24  14293.672185 -17699.245038 -18960.307144   1024.390780  0  0  0   0       
PE26   2595.412398  20371.324205 -21310.231856   6833.216210  0  0  0   0       
PE30 -15579.064558  -4151.215592  24813.219119   5470.980910  0  0  0   0       
*  2016  5  1  0 45  0.00000000
PE08 -25335.162834   1095.321726 -15258.992182   1811.667070  0  0  0   0       
PE09  25316.294895 -15127.187971  -2521.392021   1771.522260  0  0  0   0       
PE11  19037.769149  -5696.772857  21949.214520    124.259621  0  0  0   0       
PE12  26482.543170   9255.334579   9485.639099  -1786.557060  0  0  0   0       
PE14 -16419.949083 -12575.545190  11348.868309 999999.999999  0  0  0   0       
PE18  20331.092206  18576.356167 -17059.934644   2521.723230  0  0  0   0       
PE19   8731.560728  14610.698280  24221.270093     -3.809642  0  0  0   0       
PE22 -20038.045004 -20061.015264   8500.115538   2054.253900  0  0  0   0       
PE24  14053.434980 -15922.927524 -20639.947539   1024.747650  0  0  0   0       
PE26    987.527932  19216.501142 -22485.558897   6833.576950  0  0  0   0       
PE30 -15419.437058  -6376.836846  24438.973652   5471.340200  0  0  0   0       
*  2016  5  1  1  0  0.00000000
PE08 -24036.945391    405.215214 -17260.856770   1812.026020  0  0  0   0       
PE09  25387.163650 -15219.256353    178.688468   1771.878760  0  0  0   0       
PE11  20706.961006  -4742.756814  20626.304055    124.269484  0  0  0   0       
PE12  27153.216846   9575.426312   6924.505649  -1786.698090  0  0  0   0       
PE14 -14232.434704 -12969.151222  13526.599977   6038.559950  0  0  0   0       
PE18  19294.306480  18230.894643 -18617.952828   2522.079550  0  0  0   0       
PE19   6820.517720  15669.725112  24171.503385     -3.810257  0  0  0   0       
PE22 -19313.910774 -19556.831588  10986.438871   2054.412920  0  0  0   0       
PE24  13942.483376 -13994.105589 -22063.274962   1025.104510  0  0  0   0       
PE26   -775.940765  18126.581332 -23381.092103   6833.937730  0  0  0   0       
PE30 -15423.848625  -8560.650153  23760.555346   5471.699440  0  0  0   0       
EOF
